[{"OBJECT_NAME":"KUIPER-00031","OBJECT_ID":"2025-088W","EPOCH":"2026-03-09T08:49:36.222240","MEAN_MOTION":14.83663511,"ECCENTRICITY":0.00020432,"INCLINATION":51.8994,"RA_OF_ASC_NODE":97.1214,"ARG_OF_PERICENTER":139.5452,"MEAN_ANOMALY":220.5664,"EPHEMERIS_TYPE":0,"CLASSIFICATION_TYPE":"U","NORAD_CAT_ID":63744,"ELEMENT_SET_NO":999,"REV_AT_EPOCH":4750,"BSTAR":0.00061482299,"MEAN_MOTION_DOT":4.901e-5,"MEAN_MOTION_DDOT":0},{"OBJECT_NAME":"COSMOS 2251 DEB","OBJECT_ID":"1993-036BTY","EPOCH":"2026-02-24T18:30:19.329120","MEAN_MOTION":14.71359668,"ECCENTRICITY":0.00577032,"INCLINATION":74.0411,"RA_OF_ASC_NODE":81.3577,"ARG_OF_PERICENTER":169.1149,"MEAN_ANOMALY":309.3953,"EPHEMERIS_TYPE":0,"CLASSIFICATION_TYPE":"U","NORAD_CAT_ID":39109,"ELEMENT_SET_NO":999,"REV_AT_EPOCH":66262,"BSTAR":0.00037457225,"MEAN_MOTION_DOT":2.345e-5,"MEAN_MOTION_DDOT":0}]
